[{"OBJECT_NAME":"IRIDIUM 33 DEB","OBJECT_ID":"1997-051VM","EPOCH":"2026-04-04T21:08:45.168576","MEAN_MOTION":14.47151783,"ECCENTRICITY":0.00183292,"INCLINATION":86.3172,"RA_OF_ASC_NODE":318.6939,"ARG_OF_PERICENTER":141.2933,"MEAN_ANOMALY":218.9587,"EPHEMERIS_TYPE":0,"CLASSIFICATION_TYPE":"U","NORAD_CAT_ID":36080,"ELEMENT_SET_NO":999,"REV_AT_EPOCH":49050,"BSTAR":0.00056452546,"MEAN_MOTION_DOT":2.083e-5,"MEAN_MOTION_DDOT":0},{"OBJECT_NAME":"IRIDIUM 33 DEB","OBJECT_ID":"1997-051VQ","EPOCH":"2026-04-05T09:49:57.615168","MEAN_MOTION":14.43717554,"ECCENTRICITY":0.00248539,"INCLINATION":86.3468,"RA_OF_ASC_NODE":345.2215,"ARG_OF_PERICENTER":206.6997,"MEAN_ANOMALY":153.2926,"EPHEMERIS_TYPE":0,"CLASSIFICATION_TYPE":"U","NORAD_CAT_ID":36083,"ELEMENT_SET_NO":999,"REV_AT_EPOCH":87089,"BSTAR":0.00061489105,"MEAN_MOTION_DOT":2.115e-5,"MEAN_MOTION_DDOT":0},{"OBJECT_NAME":"IRIDIUM 33 DEB","OBJECT_ID":"1997-051VU","EPOCH":"2026-03-29T04:08:51.082944","MEAN_MOTION":14.75182873,"ECCENTRICITY":0.00300126,"INCLINATION":86.288,"RA_OF_ASC_NODE":250.5272,"ARG_OF_PERICENTER":157.4006,"MEAN_ANOMALY":202.8542,"EPHEMERIS_TYPE":0,"CLASSIFICATION_TYPE":"U","NORAD_CAT_ID":36390,"ELEMENT_SET_NO":999,"REV_AT_EPOCH":67830,"BSTAR":0.0016396044,"MEAN_MOTION_DOT":0.00011185,"MEAN_MOTION_DDOT":0},{"OBJECT_NAME":"IRIDIUM 33 DEB","OBJECT_ID":"1997-051VZ","EPOCH":"2026-04-04T11:35:57.571008","MEAN_MOTION":14.46293558,"ECCENTRICITY":0.00107617,"INCLINATION":86.3863,"RA_OF_ASC_NODE":4.221,"ARG_OF_PERICENTER":108.2074,"MEAN_ANOMALY":252.0301,"EPHEMERIS_TYPE":0,"CLASSIFICATION_TYPE":"U","NORAD_CAT_ID":36483,"ELEMENT_SET_NO":999,"REV_AT_EPOCH":66775,"BSTAR":0.00073076917,"MEAN_MOTION_DOT":2.639e-5,"MEAN_MOTION_DDOT":0},{"OBJECT_NAME":"IRIDIUM 33 DEB","OBJECT_ID":"1997-051WG","EPOCH":"2026-04-05T20:50:02.245056","MEAN_MOTION":14.79489522,"ECCENTRICITY":0.0004472,"INCLINATION":86.3628,"RA_OF_ASC_NODE":318.8615,"ARG_OF_PERICENTER":44.5282,"MEAN_ANOMALY":315.6298,"EPHEMERIS_TYPE":0,"CLASSIFICATION_TYPE":"U","NORAD_CAT_ID":36490,"ELEMENT_SET_NO":999,"REV_AT_EPOCH":88170,"BSTAR":0.0014676,"MEAN_MOTION_DOT":0.00010997,"MEAN_MOTION_DDOT":0},{"OBJECT_NAME":"IRIDIUM 33 DEB","OBJECT_ID":"1997-051WK","EPOCH":"2026-04-05T08:37:17.427072","MEAN_MOTION":14.6706749,"ECCENTRICITY":0.00095786,"INCLINATION":86.3558,"RA_OF_ASC_NODE":321.1445,"ARG_OF_PERICENTER":333.6927,"MEAN_ANOMALY":26.3799,"EPHEMERIS_TYPE":0,"CLASSIFICATION_TYPE":"U","NORAD_CAT_ID":36493,"ELEMENT_SET_NO":999,"REV_AT_EPOCH":76183,"BSTAR":0.0012958548,"MEAN_MOTION_DOT":7.298e-5,"MEAN_MOTION_DDOT":0},{"OBJECT_NAME":"IRIDIUM 33 DEB","OBJECT_ID":"1997-051XH","EPOCH":"2026-04-03T00:01:19.551072","MEAN_MOTION":14.52297087,"ECCENTRICITY":0.00237508,"INCLINATION":86.3552,"RA_OF_ASC_NODE":354.9233,"ARG_OF_PERICENTER":174.7918,"MEAN_ANOMALY":185.354,"EPHEMERIS_TYPE":0,"CLASSIFICATION_TYPE":"U","NORAD_CAT_ID":37548,"ELEMENT_SET_NO":999,"REV_AT_EPOCH":67146,"BSTAR":0.0011608077,"MEAN_MOTION_DOT":4.755e-5,"MEAN_MOTION_DDOT":0},{"OBJECT_NAME":"IRIDIUM 33 DEB","OBJECT_ID":"1997-051XK","EPOCH":"2026-04-02T21:51:40.910688","MEAN_MOTION":14.69178258,"ECCENTRICITY":0.00053584,"INCLINATION":86.3786,"RA_OF_ASC_NODE":334.5454,"ARG_OF_PERICENTER":84.6881,"MEAN_ANOMALY":275.4946,"EPHEMERIS_TYPE":0,"CLASSIFICATION_TYPE":"U","NORAD_CAT_ID":37550,"ELEMENT_SET_NO":999,"REV_AT_EPOCH":87964,"BSTAR":0.0020274658,"MEAN_MOTION_DOT":0.00011964,"MEAN_MOTION_DDOT":0},{"OBJECT_NAME":"IRIDIUM 33 DEB","OBJECT_ID":"1997-051XX","EPOCH":"2026-03-22T12:44:46.455072","MEAN_MOTION":14.57637636,"ECCENTRICITY":0.00255381,"INCLINATION":86.3789,"RA_OF_ASC_NODE":0.0548,"ARG_OF_PERICENTER":124.1616,"MEAN_ANOMALY":54.2204,"EPHEMERIS_TYPE":0,"CLASSIFICATION_TYPE":"U","NORAD_CAT_ID":37562,"ELEMENT_SET_NO":999,"REV_AT_EPOCH":87781,"BSTAR":0.001188295,"MEAN_MOTION_DOT":5.46e-5,"MEAN_MOTION_DDOT":0},{"OBJECT_NAME":"IRIDIUM 33 DEB","OBJECT_ID":"1997-051YA","EPOCH":"2026-03-29T22:17:22.567488","MEAN_MOTION":14.52093593,"ECCENTRICITY":0.00149004,"INCLINATION":86.3497,"RA_OF_ASC_NODE":322.8879,"ARG_OF_PERICENTER":81.9377,"MEAN_ANOMALY":278.3519,"EPHEMERIS_TYPE":0,"CLASSIFICATION_TYPE":"U","NORAD_CAT_ID":37565,"ELEMENT_SET_NO":999,"REV_AT_EPOCH":67392,"BSTAR":0.00052487239,"MEAN_MOTION_DOT":2.147e-5,"MEAN_MOTION_DDOT":0},{"OBJECT_NAME":"IRIDIUM 33 DEB","OBJECT_ID":"1997-051YD","EPOCH":"2026-04-04T11:52:49.364256","MEAN_MOTION":14.5224952,"ECCENTRICITY":0.00898094,"INCLINATION":86.3373,"RA_OF_ASC_NODE":117.0431,"ARG_OF_PERICENTER":90.6027,"MEAN_ANOMALY":270.547,"EPHEMERIS_TYPE":0,"CLASSIFICATION_TYPE":"U","NORAD_CAT_ID":38017,"ELEMENT_SET_NO":999,"REV_AT_EPOCH":63037,"BSTAR":0.0022066715,"MEAN_MOTION_DOT":9.473e-5,"MEAN_MOTION_DDOT":0},{"OBJECT_NAME":"IRIDIUM 33 DEB","OBJECT_ID":"1997-051YJ","EPOCH":"2026-04-04T21:41:30.803136","MEAN_MOTION":14.42287066,"ECCENTRICITY":0.00461456,"INCLINATION":86.2713,"RA_OF_ASC_NODE":326.8678,"ARG_OF_PERICENTER":36.8526,"MEAN_ANOMALY":323.583,"EPHEMERIS_TYPE":0,"CLASSIFICATION_TYPE":"U","NORAD_CAT_ID":38022,"ELEMENT_SET_NO":999,"REV_AT_EPOCH":70824,"BSTAR":0.0013262722,"MEAN_MOTION_DOT":4.451e-5,"MEAN_MOTION_DDOT":0},{"OBJECT_NAME":"IRIDIUM 33 DEB","OBJECT_ID":"1997-051YQ","EPOCH":"2026-04-05T08:19:50.557152","MEAN_MOTION":14.4659123,"ECCENTRICITY":0.00297577,"INCLINATION":86.324,"RA_OF_ASC_NODE":310.8908,"ARG_OF_PERICENTER":103.8802,"MEAN_ANOMALY":256.5714,"EPHEMERIS_TYPE":0,"CLASSIFICATION_TYPE":"U","NORAD_CAT_ID":38028,"ELEMENT_SET_NO":999,"REV_AT_EPOCH":67137,"BSTAR":0.00053823241,"MEAN_MOTION_DOT":1.971e-5,"MEAN_MOTION_DDOT":0},{"OBJECT_NAME":"IRIDIUM 33 DEB","OBJECT_ID":"1997-051ZC","EPOCH":"2026-04-03T17:20:08.995776","MEAN_MOTION":14.27503912,"ECCENTRICITY":0.0063004,"INCLINATION":86.2996,"RA_OF_ASC_NODE":0.8629,"ARG_OF_PERICENTER":188.4831,"MEAN_ANOMALY":200.4838,"EPHEMERIS_TYPE":0,"CLASSIFICATION_TYPE":"U","NORAD_CAT_ID":38228,"ELEMENT_SET_NO":999,"REV_AT_EPOCH":86379,"BSTAR":0.00049723495,"MEAN_MOTION_DOT":1.266e-5,"MEAN_MOTION_DDOT":0},{"OBJECT_NAME":"IRIDIUM 33 DEB","OBJECT_ID":"1997-051ZR","EPOCH":"2026-04-03T07:17:28.574016","MEAN_MOTION":14.55696176,"ECCENTRICITY":0.0006628,"INCLINATION":86.3179,"RA_OF_ASC_NODE":301.3571,"ARG_OF_PERICENTER":55.17,"MEAN_ANOMALY":305.013,"EPHEMERIS_TYPE":0,"CLASSIFICATION_TYPE":"U","NORAD_CAT_ID":38241,"ELEMENT_SET_NO":999,"REV_AT_EPOCH":61823,"BSTAR":0.0010458,"MEAN_MOTION_DOT":4.592e-5,"MEAN_MOTION_DDOT":0},{"OBJECT_NAME":"IRIDIUM 33 DEB","OBJECT_ID":"1997-051AAB","EPOCH":"2026-04-02T08:48:36.938880","MEAN_MOTION":14.51310033,"ECCENTRICITY":0.00278113,"INCLINATION":86.3424,"RA_OF_ASC_NODE":321.8519,"ARG_OF_PERICENTER":76.4852,"MEAN_ANOMALY":283.945,"EPHEMERIS_TYPE":0,"CLASSIFICATION_TYPE":"U","NORAD_CAT_ID":38474,"ELEMENT_SET_NO":999,"REV_AT_EPOCH":66922,"BSTAR":0.00062381036,"MEAN_MOTION_DOT":2.515e-5,"MEAN_MOTION_DDOT":0}]
