IRIDIUM 33 DEB          
1 36080U 97051VM  26094.88107834  .00002083  00000+0  56453-3 0  9997
2 36080  86.3172 318.6939 0018329 141.2933 218.9587 14.47151783490500
IRIDIUM 33 DEB          
1 36083U 97051VQ  26095.40969462  .00002115  00000+0  61489-3 0  9993
2 36083  86.3468 345.2215 0024853 206.6997 153.2926 14.43717554870891
IRIDIUM 33 DEB          
1 36390U 97051VU  26088.17281346  .00011185  00000+0  16396-2 0  9991
2 36390  86.2880 250.5272 0030012 157.4006 202.8542 14.75182873678300
IRIDIUM 33 DEB          
1 36483U 97051VZ  26094.48330522  .00002639  00000+0  73077-3 0  9990
2 36483  86.3863   4.2210 0010761 108.2074 252.0301 14.46293558667757
IRIDIUM 33 DEB          
1 36490U 97051WG  26095.86808154  .00010997  00000+0  14676-2 0  9997
2 36490  86.3628 318.8615 0004472  44.5282 315.6298 14.79489522881700
IRIDIUM 33 DEB          
1 36493U 97051WK  26095.35922948  .00007298  00000+0  12959-2 0  9994
2 36493  86.3558 321.1445 0009578 333.6927  26.3799 14.67067490761839
IRIDIUM 33 DEB          
1 37548U 97051XH  26093.00092073  .00004755  00000+0  11608-2 0  9998
2 37548  86.3552 354.9233 0023750 174.7918 185.3540 14.52297087671466
IRIDIUM 33 DEB          
1 37550U 97051XK  26092.91089017  .00011964  00000+0  20275-2 0  9994
2 37550  86.3786 334.5454 0005358  84.6881 275.4946 14.69178258879646
IRIDIUM 33 DEB          
1 37562U 97051XX  26081.53109323  .00005460  00000+0  11883-2 0  9995
2 37562  86.3789   0.0548 0025538 124.1616  54.2204 14.57637636877813
IRIDIUM 33 DEB          
1 37565U 97051YA  26088.92873342  .00002147  00000+0  52487-3 0  9992
2 37565  86.3497 322.8879 0014900  81.9377 278.3519 14.52093593673926
IRIDIUM 33 DEB          
1 38017U 97051YD  26094.49501579  .00009473  00000+0  22067-2 0  9993
2 38017  86.3373 117.0431 0089809  90.6027 270.5470 14.52249520630374
IRIDIUM 33 DEB          
1 38022U 97051YJ  26094.90382874  .00004451  00000+0  13263-2 0  9999
2 38022  86.2713 326.8678 0046145  36.8526 323.5830 14.42287066708249
IRIDIUM 33 DEB          
1 38028U 97051YQ  26095.34711293  .00001971  00000+0  53823-3 0  9996
2 38028  86.3240 310.8908 0029757 103.8802 256.5714 14.46591230671376
IRIDIUM 33 DEB          
1 38228U 97051ZC  26093.72232634  .00001266  00000+0  49723-3 0  9996
2 38228  86.2996   0.8629 0063004 188.4831 200.4838 14.27503912863798
IRIDIUM 33 DEB          
1 38241U 97051ZR  26093.30380294  .00004592  00000+0  10458-2 0  9998
2 38241  86.3179 301.3571 0006628  55.1700 305.0130 14.55696176618236
IRIDIUM 33 DEB          
1 38474U 97051AAB 26092.36709420  .00002515  00000+0  62381-3 0  9993
2 38474  86.3424 321.8519 0027811  76.4852 283.9450 14.51310033669222
